{
  "type": "FeatureCollection",
  "features": [
    {
      "type": "Feature",
      "properties": {
        "norad_id": 34784,
        "name": "COSMOS 2251 DEB",
        "group": "cosmos-2251-debris",
        "lat": 2.511225936531233,
        "lon": 125.5870590625138,
        "alt_km": 677.6392638524931,
        "timestamp": "2025-12-22T04:03:39.563616+00:00",
        "meta_object_name": "COSMOS 2251 DEB",
        "meta_object_id": "1993-036AAM",
        "meta_epoch": "2025-12-19T22:39:42.145920",
        "meta_mean_motion": 14.60808995,
        "meta_eccentricity": 0.0049222,
        "meta_inclination": 74.0073,
        "meta_ra_of_asc_node": 310.5647,
        "meta_arg_of_pericenter": 117.7322,
        "meta_mean_anomaly": 242.885,
        "meta_ephemeris_type": 0,
        "meta_classification_type": "U",
        "meta_norad_cat_id": 34784,
        "meta_element_set_no": 999,
        "meta_rev_at_epoch": 88640,
        "meta_bstar": 0.00031795,
        "meta_mean_motion_dot": 1.549e-05,
        "meta_mean_motion_ddot": 0,
        "tle_line1": "1 34784U 93036AAM 25353.94423780  .00001549  00000+0  31795-3 0  9998",
        "tle_line2": "2 34784  74.0073 310.5647 0049222 117.7322 242.8850 14.60808995886402"
      },
      "geometry": {
        "type": "Point",
        "coordinates": [
          125.5870590625138,
          2.511225936531233
        ]
      }
    },
    {
      "type": "Feature",
      "properties": {
        "norad_id": 34790,
        "name": "COSMOS 2251 DEB",
        "group": "cosmos-2251-debris",
        "lat": 22.913947994489966,
        "lon": 39.78888999517386,
        "alt_km": 855.2391912227358,
        "timestamp": "2025-12-22T04:03:39.563625+00:00",
        "meta_object_name": "COSMOS 2251 DEB",
        "meta_object_id": "1993-036AAT",
        "meta_epoch": "2025-12-20T03:10:44.601024",
        "meta_mean_motion": 14.24656104,
        "meta_eccentricity": 0.01005224,
        "meta_inclination": 74.0538,
        "meta_ra_of_asc_node": 230.3962,
        "meta_arg_of_pericenter": 290.5432,
        "meta_mean_anomaly": 224.5062,
        "meta_ephemeris_type": 0,
        "meta_classification_type": "U",
        "meta_norad_cat_id": 34790,
        "meta_element_set_no": 999,
        "meta_rev_at_epoch": 86678,
        "meta_bstar": 0.00041671452,
        "meta_mean_motion_dot": 9.95e-06,
        "meta_mean_motion_ddot": 0,
        "tle_line1": "1 34790U 93036AAT 25354.13246066  .00000995  00000+0  41671-3 0  9995",
        "tle_line2": "2 34790  74.0538 230.3962 0100522 290.5432 224.5062 14.24656104866781"
      },
      "geometry": {
        "type": "Point",
        "coordinates": [
          39.78888999517386,
          22.913947994489966
        ]
      }
    },
    {
      "type": "Feature",
      "properties": {
        "norad_id": 34792,
        "name": "COSMOS 2251 DEB",
        "group": "cosmos-2251-debris",
        "lat": 73.89950370396171,
        "lon": -125.00280391743479,
        "alt_km": 706.7586618241639,
        "timestamp": "2025-12-22T04:03:39.563635+00:00",
        "meta_object_name": "COSMOS 2251 DEB",
        "meta_object_id": "1993-036AAV",
        "meta_epoch": "2025-12-21T19:58:57.186048",
        "meta_mean_motion": 14.56023157,
        "meta_eccentricity": 0.0012384,
        "meta_inclination": 74.0174,
        "meta_ra_of_asc_node": 152.4504,
        "meta_arg_of_pericenter": 246.9605,
        "meta_mean_anomaly": 237.5715,
        "meta_ephemeris_type": 0,
        "meta_classification_type": "U",
        "meta_norad_cat_id": 34792,
        "meta_element_set_no": 999,
        "meta_rev_at_epoch": 87782,
        "meta_bstar": 0.00082205,
        "meta_mean_motion_dot": 3.595e-05,
        "meta_mean_motion_ddot": 0,
        "tle_line1": "1 34792U 93036AAV 25355.83260632  .00003595  00000+0  82205-3 0  9997",
        "tle_line2": "2 34792  74.0174 152.4504 0012384 246.9605 237.5715 14.56023157877827"
      },
      "geometry": {
        "type": "Point",
        "coordinates": [
          -125.00280391743479,
          73.89950370396171
        ]
      }
    },
    {
      "type": "Feature",
      "properties": {
        "norad_id": 34793,
        "name": "COSMOS 2251 DEB",
        "group": "cosmos-2251-debris",
        "lat": -1.5798904199171238,
        "lon": -127.50655198731609,
        "alt_km": 733.2330019353685,
        "timestamp": "2025-12-22T04:03:39.563645+00:00",
        "meta_object_name": "COSMOS 2251 DEB",
        "meta_object_id": "1993-036AAW",
        "meta_epoch": "2025-12-21T18:21:24.551136",
        "meta_mean_motion": 14.38657782,
        "meta_eccentricity": 0.0050681,
        "meta_inclination": 74.002,
        "meta_ra_of_asc_node": 233.6936,
        "meta_arg_of_pericenter": 25.499,
        "meta_mean_anomaly": 39.9235,
        "meta_ephemeris_type": 0,
        "meta_classification_type": "U",
        "meta_norad_cat_id": 34793,
        "meta_element_set_no": 999,
        "meta_rev_at_epoch": 87460,
        "meta_bstar": 0.00018245,
        "meta_mean_motion_dot": 5.41e-06,
        "meta_mean_motion_ddot": 0,
        "tle_line1": "1 34793U 93036AAW 25355.76486749  .00000541  00000+0  18245-3 0  9990",
        "tle_line2": "2 34793  74.0020 233.6936 0050681  25.4990  39.9235 14.38657782874609"
      },
      "geometry": {
        "type": "Point",
        "coordinates": [
          -127.50655198731609,
          -1.5798904199171238
        ]
      }
    },
    {
      "type": "Feature",
      "properties": {
        "norad_id": 34796,
        "name": "COSMOS 2251 DEB",
        "group": "cosmos-2251-debris",
        "lat": 67.99553812984131,
        "lon": -116.2069826727969,
        "alt_km": 773.7773085101308,
        "timestamp": "2025-12-22T04:03:39.563655+00:00",
        "meta_object_name": "COSMOS 2251 DEB",
        "meta_object_id": "1993-036AAZ",
        "meta_epoch": "2025-12-21T06:43:38.254368",
        "meta_mean_motion": 14.48726221,
        "meta_eccentricity": 0.010028,
        "meta_inclination": 74.0288,
        "meta_ra_of_asc_node": 200.3317,
        "meta_arg_of_pericenter": 300.5709,
        "meta_mean_anomaly": 179.2041,
        "meta_ephemeris_type": 0,
        "meta_classification_type": "U",
        "meta_norad_cat_id": 34796,
        "meta_element_set_no": 999,
        "meta_rev_at_epoch": 88151,
        "meta_bstar": 0.00042485,
        "meta_mean_motion_dot": 1.677e-05,
        "meta_mean_motion_ddot": 0,
        "tle_line1": "1 34796U 93036AAZ 25355.28030387  .00001677  00000+0  42485-3 0  9997",
        "tle_line2": "2 34796  74.0288 200.3317 0100280 300.5709 179.2041 14.48726221881515"
      },
      "geometry": {
        "type": "Point",
        "coordinates": [
          -116.2069826727969,
          67.99553812984131
        ]
      }
    },
    {
      "type": "Feature",
      "properties": {
        "norad_id": 34797,
        "name": "COSMOS 2251 DEB",
        "group": "cosmos-2251-debris",
        "lat": -0.22419554509410244,
        "lon": 82.35338220528168,
        "alt_km": 800.6896503577045,
        "timestamp": "2025-12-22T04:03:39.563665+00:00",
        "meta_object_name": "COSMOS 2251 DEB",
        "meta_object_id": "1993-036ABA",
        "meta_epoch": "2025-12-18T13:32:08.695392",
        "meta_mean_motion": 14.42903821,
        "meta_eccentricity": 0.00713736,
        "meta_inclination": 73.9783,
        "meta_ra_of_asc_node": 89.1324,
        "meta_arg_of_pericenter": 201.7042,
        "meta_mean_anomaly": 158.1087,
        "meta_ephemeris_type": 0,
        "meta_classification_type": "U",
        "meta_norad_cat_id": 34797,
        "meta_element_set_no": 999,
        "meta_rev_at_epoch": 87499,
        "meta_bstar": 0.0016985088,
        "meta_mean_motion_dot": 5.83e-05,
        "meta_mean_motion_ddot": 0,
        "tle_line1": "1 34797U 93036ABA 25352.56398953  .00005830  00000+0  16985-2 0  9992",
        "tle_line2": "2 34797  73.9783  89.1324 0071373 201.7042 158.1087 14.42903821874994"
      },
      "geometry": {
        "type": "Point",
        "coordinates": [
          82.35338220528168,
          -0.22419554509410244
        ]
      }
    },
    {
      "type": "Feature",
      "properties": {
        "norad_id": 34814,
        "name": "COSMOS 2251 DEB",
        "group": "cosmos-2251-debris",
        "lat": 38.126160520626165,
        "lon": 114.8445213000191,
        "alt_km": 742.8808250416687,
        "timestamp": "2025-12-22T04:03:39.563675+00:00",
        "meta_object_name": "COSMOS 2251 DEB",
        "meta_object_id": "1993-036ABD",
        "meta_epoch": "2025-12-21T20:52:02.644320",
        "meta_mean_motion": 14.36929091,
        "meta_eccentricity": 0.0055599,
        "meta_inclination": 73.896,
        "meta_ra_of_asc_node": 308.5052,
        "meta_arg_of_pericenter": 196.164,
        "meta_mean_anomaly": 194.4042,
        "meta_ephemeris_type": 0,
        "meta_classification_type": "U",
        "meta_norad_cat_id": 34814,
        "meta_element_set_no": 999,
        "meta_rev_at_epoch": 87464,
        "meta_bstar": 0.00055763,
        "meta_mean_motion_dot": 1.653e-05,
        "meta_mean_motion_ddot": 0,
        "tle_line1": "1 34814U 93036ABD 25355.86947505  .00001653  00000+0  55763-3 0  9998",
        "tle_line2": "2 34814  73.8960 308.5052 0055599 196.1640 194.4042 14.36929091874645"
      },
      "geometry": {
        "type": "Point",
        "coordinates": [
          114.8445213000191,
          38.126160520626165
        ]
      }
    }
  ]
}